{"spkid": "50825530", "covariance": {"epoch": "2458945.5", "labels": ["e", "q", "tp", "node", "peri", "i"], "elements": [{"value": ".6875481431856622", "title": "eccentricity", "units": null, "sigma": 1.78152790682202e-07, "name": "e", "label": "e"}, {"sigma": 1.51303169283531e-07, "name": "q", "units": "au", "value": ".2648009824811822", "title": "perihelion distance", "label": "q"}, {"name": "tp", "sigma": 2.49221157912332e-05, "units": "TDB", "value": "2459086.473119477253", "title": "time of perihelion passage", "label": "tp"}, {"label": "node", "units": "deg", "value": "105.0081766680016", "title": "longitude of the ascending node", "name": "om", "sigma": 1.6940154221812e-05}, {"units": "deg", "value": "21.79564365836151", "title": "argument of perihelion", "name": "w", "sigma": 2.13510360085886e-05, "label": "peri"}, {"label": "i", "name": "i", "sigma": 1.97670473098153e-05, "units": "deg", "title": "inclination", "value": "12.37347698934378"}], "data": [["3.173841682785654E-14", "-2.695425655270344E-14", "3.367404295509488E-12", "-7.703118940933055E-13", "2.297721431761384E-13", "-3.073206919342567E-13"], ["-2.695425655270344E-14", "2.289264903524085E-14", "-2.877657368211172E-12", "6.65581479190226E-13", "-2.14551006323211E-13", "2.737245443356962E-13"], ["3.367404295509488E-12", "-2.877657368211172E-12", "6.211118555116364E-10", "-2.326299676045416E-10", "2.985711482922505E-10", "-2.016151785281179E-10"], ["-7.703118940933055E-13", "6.65581479190226E-13", "-2.326299676045416E-10", "2.869688250587765E-10", "-3.349050403033715E-10", "-2.560367571704235E-11"], ["2.297721431761384E-13", "-2.14551006323211E-13", "2.985711482922505E-10", "-3.349050403033715E-10", "4.558667386400476E-10", "-5.33749974560292E-11"], ["-3.073206919342567E-13", "2.737245443356962E-13", "-2.016151785281179E-10", "-2.560367571704235E-11", "-5.33749974560292E-11", "3.907361593484749E-10"]]}, "elements": [{"label": "e", "title": "eccentricity", "value": ".6874782814346934", "units": null, "name": "e", "sigma": "1.7816E-7"}, {"units": "au", "title": "semi-major axis", "value": ".8475637256674983", "name": "a", "sigma": "3.7573E-9", "label": "a"}, {"label": "q", "name": "q", "sigma": "1.5126E-7", "title": "perihelion distance", "value": ".2648820721392207", "units": "au"}, {"label": "i", "name": "i", "sigma": "1.9741E-5", "units": "deg", "title": "inclination; angle with respect to x-y ecliptic plane", "value": "12.37868855068501"}, {"label": "node", "units": "deg", "value": "104.961529797436", "title": "longitude of the ascending node", "sigma": "1.6967E-5", "name": "om"}, {"sigma": "2.14E-5", "name": "w", "units": "deg", "title": "argument of perihelion", "value": "21.86439216266452", "label": "peri"}, {"label": "M", "sigma": "2.0794E-5", "name": "ma", "title": "mean anomaly", "value": "150.5555845008051", "units": "deg"}, {"label": "tp", "sigma": "1.667E-5", "name": "tp", "value": "2461081.306839004400", "title": "time of perihelion passage", "units": "TDB"}, {"sigma": "1.8952E-6", "name": "per", "units": "d", "value": "285.0079464052466", "title": "sidereal orbital period", "label": "period"}, {"sigma": "8.3992E-9", "name": "n", "value": "1.263122676194171", "title": "mean motion", "units": "deg/d", "label": "n"}, {"name": "ad", "sigma": "6.3403E-9", "units": "au", "title": "aphelion distance", "value": "1.430245379195776", "label": "Q"}], "epoch": "2461200.5"}